FENGYUN 1C DEB          
1 30253U 99025XN  17345.88856374 -.00000055  00000-0 -18191-4 0  9993
2 30253  98.7064 317.3620 0240041 185.5487 230.2937 13.63885558540928
